NORAD_CAT_ID,OBJECT_NAME,OBJECT_TYPE,EPOCH,MEAN_MOTION,ECCENTRICITY,INCLINATION,RA_OF_ASC_NODE,ARG_OF_PERICENTER,MEAN_ANOMALY,BSTAR,MEAN_MOTION_DOT,MEAN_MOTION_DDOT,TLE_LINE0,TLE_LINE1,TLE_LINE2,SEMIMAJOR_AXIS,PERIOD,APOGEE,PERIGEE,DECAYED
51982.0,STARLINK-3650,PAYLOAD,2022-04-01 14:00:01,15.73250293,0.0001044,53.2177,25.818,104.1806,170.6692,-0.00044459,-0.00062684,0.0,0 STARLINK-3650,1 51982U 22025AC  22091.58334491 -.00062684  00000-0 -44459-3 0  9994,2 51982  53.2177  25.8180 0001044 104.1806 170.6692 15.73250293  3714,6727.752,91.53,350.319,348.914,0.0
51982.0,STARLINK-3650,PAYLOAD,2022-04-01 20:00:01,15.73232028,0.0001077,53.2177,24.5807,111.387,140.1844,-0.00050923,-0.00071577,0.0,0 STARLINK-3650,1 51982U 22025AC  22091.83334491 -.00071577  00000-0 -50923-3 0  9996,2 51982  53.2177  24.5807 0001077 111.3870 140.1844 15.73232028  4946,6727.804,91.531,350.39300000000014,348.944,0.0
51982.0,STARLINK-3650,PAYLOAD,2022-04-01 22:00:00,15.73244424,0.0001051,53.2177,24.1689,106.4856,257.3263,-0.00085361,-0.00118961,0.0,0 STARLINK-3650,1 51982U 22025AC  22091.91667824 -.00118961  00000-0 -85361-3 0  9997,2 51982  53.2177  24.1689 0001051 106.4856 257.3263 15.73244424  3691,6727.769,91.531,350.341,348.926,0.0
51982.0,STARLINK-3650,PAYLOAD,2022-04-02 12:00:00,15.73210794,0.0001148,53.2173,21.2781,96.3207,333.0826,-0.0011617,-0.00160652,0.0,0 STARLINK-3650,1 51982U 22025AC  22092.50001157 -.00160652  00000-0 -11617-2 0  9990,2 51982  53.2173  21.2781 0001148  96.3207 333.0826 15.73210794  5043,6727.864000000001,91.533,350.50199999999984,348.957,0.0
51982.0,STARLINK-3650,PAYLOAD,2022-04-02 20:00:01,15.72914641,0.0001195,53.2174,19.6242,100.3399,57.9641,-0.00010927,-0.00015738,0.0,0 STARLINK-3650,1 51982U 22025AC  22092.83334491 -.00015738  00000-0 -10927-3 0  9994,2 51982  53.2174  19.6242 0001195 100.3399  57.9641 15.72914641  5090,6728.709,91.55,351.37800000000016,349.77,0.0
51982.0,STARLINK-3650,PAYLOAD,2022-04-02 22:00:01,15.72887278,0.0001128,53.2176,19.2119,100.1901,170.3453,-0.00015009,-0.00021348,0.0,0 STARLINK-3650,1 51982U 22025AC  22092.91668981 -.00021348  00000-0 -15009-3 0  9997,2 51982  53.2176  19.2119 0001128 100.1901 170.3453 15.72887278  3717,6728.7869999999975,91.551,351.411,349.89300000000014,0.0
51982.0,STARLINK-3650,PAYLOAD,2022-04-03 04:00:00,15.73018887,0.0001266,53.2178,17.9757,111.4974,135.38299999999998,-0.0056259,-0.00720244,0.0,0 STARLINK-3650,1 51982U 22025AC  22093.16667824 -.00720244  00000-0 -56259-2 0  9992,2 51982  53.2178  17.9757 0001266 111.4974 135.3830 15.73018887  5153,6728.4119999999975,91.544,351.12800000000016,349.425,0.0
51982.0,STARLINK-3650,PAYLOAD,2022-04-03 22:00:00,15.71869981,0.0001183,53.2177,14.273,89.3877,85.5234,-0.0058881,-0.00717796,0.0,0 STARLINK-3650,1 51982U 22025AC  22093.91667824 -.00717796  00000-0 -58881-2 0  9996,2 51982  53.2177  14.2730 0001183  89.3877  85.5234 15.71869981  3694,6731.69,91.611,354.351,352.7580000000001,0.0
51982.0,STARLINK-3650,PAYLOAD,2022-04-04 04:00:00,15.71486033,0.0001182,53.2176,13.0421,105.5378,44.6932,-0.0059616,-0.00715205,0.0,0 STARLINK-3650,1 51982U 22025AC  22094.16667824 -.00715205  00000-0 -59616-2 0  9994,2 51982  53.2176  13.0421 0001182 105.5378  44.6932 15.71486033  5307,6732.786,91.633,355.44699999999995,353.855,0.0
51982.0,STARLINK-3650,PAYLOAD,2022-04-04 14:00:01,15.70848606,0.0001058,53.2174,10.9875,110.9356,237.3979,-0.0061278,-0.00715511,0.0,0 STARLINK-3650,1 51982U 22025AC  22094.58334491 -.00715511  00000-0 -61278-2 0  9998,2 51982  53.2174  10.9875 0001058 110.9356 237.3979 15.70848606  3703,6734.607,91.67,357.185,355.76,0.0
51982.0,STARLINK-3650,PAYLOAD,2022-04-04 22:00:00,15.70341045,0.0001031,53.2176,9.348,93.25,340.8736,-0.0062952,-0.0071918,0.0,0 STARLINK-3650,1 51982U 22025AC  22094.91667824 -.00719180  00000-0 -62952-2 0  9990,2 51982  53.2176   9.3480 0001031  93.2500 340.8736 15.70341045  3711,6736.059,91.7,358.61800000000005,357.22900000000016,0.0
51982.0,STARLINK-3650,PAYLOAD,2022-04-05 04:00:00,15.69956119,0.0001171,53.2177,8.1195,123.3439,284.7215,-0.0063593,-0.00715236,0.0,0 STARLINK-3650,1 51982U 22025AC  22095.16667824 -.00715236  00000-0 -63593-2 0  9998,2 51982  53.2177   8.1195 0001171 123.3439 284.7215 15.69956119  5467,6737.16,91.722,359.81300000000016,358.236,0.0
51982.0,STARLINK-3650,PAYLOAD,2022-04-05 14:00:01,15.69319036,0.0001238,53.2176,6.0694,112.267,131.6682,-0.0065296,-0.00715129,0.0,0 STARLINK-3650,1 51982U 22025AC  22095.58335648 -.00715129  00000-0 -65296-2 0  9993,2 51982  53.2176   6.0694 0001238 112.2670 131.6682 15.69319036  3721,6738.983,91.76,361.682,360.01300000000015,0.0
51982.0,STARLINK-3650,PAYLOAD,2022-04-05 22:00:00,15.6881108,0.0001084,53.2177,4.4339,101.6598,226.1617,-0.0067039,-0.00718547,0.0,0 STARLINK-3650,1 51982U 22025AC  22095.91667824 -.00718547  00000-0 -67039-2 0  9998,2 51982  53.2177   4.4339 0001084 101.6598 226.1617 15.68811080  3701,6740.437,91.789,363.033,361.572,0.0
51982.0,STARLINK-3650,PAYLOAD,2022-04-06 04:00:00,15.68426666,0.0001296999999999,53.2176,3.2082,127.2351,173.1491,-0.0067766999999999,-0.00715221,0.0,0 STARLINK-3650,1 51982U 22025AC  22096.16667824 -.00715221  00000-0 -67767-2 0  9990,2 51982  53.2176   3.2082 0001297 127.2351 173.1491 15.68426666  5625,6741.5390000000025,91.812,364.278,362.529,0.0
51982.0,STARLINK-3650,PAYLOAD,2022-04-06 14:00:01,15.67789214,0.0001102,53.2172,1.1629,101.7111,32.1798,-0.0069562,-0.00715099,0.0,0 STARLINK-3650,1 51982U 22025AC  22096.58334491 -.00715099  00000-0 -69562-2 0  9995,2 51982  53.2172   1.1629 0001102 101.7111  32.1798 15.67789214  3690,6743.366,91.849,365.974,364.48800000000006,0.0
51982.0,STARLINK-3650,PAYLOAD,2022-04-06 22:00:00,15.67278787,0.0001246,53.2175,359.531,97.2802,118.7251,-0.0070944,-0.00714302,0.0,0 STARLINK-3650,1 51982U 22025AC  22096.91667824 -.00714302  00000-0 -70944-2 0  9993,2 51982  53.2175 359.5310 0001246  97.2802 118.7251 15.67278787  3700,6744.83,91.879,367.535,365.855,0.0
51982.0,STARLINK-3650,PAYLOAD,2022-04-07 04:00:00,15.66893295,0.0001308,53.2175,358.30800000000005,120.4058,66.7838,-0.0071506,-0.00709173,0.0,0 STARLINK-3650,1 51982U 22025AC  22097.16667824 -.00709173  00000-0 -71506-2 0  9996,2 51982  53.2175 358.3080 0001308 120.4058  66.7838 15.66893295  5770,6745.936,91.902,368.684,366.919,0.0
51982.0,STARLINK-3650,PAYLOAD,2022-04-07 14:00:01,15.66258794,0.0001057,53.2174,356.2672,109.9879,268.4096,-0.0073986999999999,-0.00714562,0.0,0 STARLINK-3650,1 51982U 22025AC  22097.58334491 -.00714562  00000-0 -73987-2 0  9996,2 51982  53.2174 356.2672 0001057 109.9879 268.4096 15.66258794  3704,6747.7580000000025,91.939,370.336,368.91,0.0
51982.0,STARLINK-3650,PAYLOAD,2022-04-07 20:00:01,15.65879378,0.000105,53.2178,355.0459,97.7372,250.9233,-0.0075631,-0.00718917,0.0,0 STARLINK-3650,1 51982U 22025AC  22097.83334491 -.00718917  00000-0 -75631-2 0  9990,2 51982  53.2178 355.0459 0001050  97.7372 250.9233 15.65879378  5889,6748.848000000001,91.961,371.421,370.004,0.0
51982.0,STARLINK-3650,PAYLOAD,2022-04-07 22:00:00,15.65750327,0.0001094,53.2176,354.6394,86.2989,12.3735,-0.0075759,-0.00716602,0.0,0 STARLINK-3650,1 51982U 22025AC  22097.91667824 -.00716602  00000-0 -75759-2 0  9998,2 51982  53.2176 354.6394 0001094  86.2989  12.3735 15.65750327  3680,6749.219,91.969,371.822,370.345,0.0
51982.0,STARLINK-3650,PAYLOAD,2022-04-08 14:00:03,15.64729364,0.0001185,53.2173,351.3827,100.1737,157.345,-0.0078691,-0.007146,0.0,0 STARLINK-3650,1 51982U 22025AC  22098.58336806 -.00714600  00000-0 -78691-2 0  9999,2 51982  53.2173 351.3827 0001185 100.1737 157.3450 15.64729364  3703,6752.154,92.029,374.819,373.219,0.0
51982.0,STARLINK-3650,PAYLOAD,2022-04-08 20:00:01,15.64347548,0.0001226,53.2176,350.1645,89.615,136.6584,-0.0079991,-0.00715348,0.0,0 STARLINK-3650,1 51982U 22025AC  22098.83334491 -.00715348  00000-0 -79991-2 0  9999,2 51982  53.2176 350.1645 0001226  89.6150 136.6584 15.64347548  6045,6753.253000000002,92.051,375.946,374.29,0.0
51982.0,STARLINK-3650,PAYLOAD,2022-04-08 22:00:00,15.6422044,0.0001076,53.2174,349.7588,90.7248,245.1002,-0.0080492999999999,-0.00716099,0.0,0 STARLINK-3650,1 51982U 22025AC  22098.91667824 -.00716099  00000-0 -80493-2 0  9990,2 51982  53.2174 349.7588 0001076  90.7248 245.1002 15.64220440  3675,6753.619000000002,92.059,376.21,374.757,0.0
51982.0,STARLINK-3650,PAYLOAD,2022-04-09 14:00:01,15.63201093,0.0001126,53.2173,346.5096,97.2319,33.6317,-0.008399,-0.00717473,0.0,0 STARLINK-3650,1 51982U 22025AC  22099.58334491 -.00717473  00000-0 -83990-2 0  9997,2 51982  53.2173 346.5096 0001126  97.2319  33.6317 15.63201093  3716,6756.554,92.119,379.18,377.659,0.0
51982.0,STARLINK-3650,PAYLOAD,2022-04-09 20:00:01,15.62818397,0.0001097,53.2176,345.2943,81.8894,16.4808,-0.0085139,-0.00716472,0.0,0 STARLINK-3650,1 51982U 22025AC  22099.83334491 -.00716472  00000-0 -85139-2 0  9990,2 51982  53.2176 345.2943 0001097  81.8894  16.4808 15.62818397  6199,6757.656999999997,92.141,380.264,378.781,0.0
51982.0,STARLINK-3650,PAYLOAD,2022-04-09 22:00:00,15.62688598,0.000127,53.2174,344.8893,83.8086,123.6547,-0.0085111,-0.00712936,0.0,0 STARLINK-3650,1 51982U 22025AC  22099.91667824 -.00712936  00000-0 -85111-2 0  9999,2 51982  53.2174 344.8893 0001270  83.8086 123.6547 15.62688598  3707,6758.031999999997,92.149,380.755,379.038,0.0
51982.0,STARLINK-3650,PAYLOAD,2022-04-10 14:00:01,15.61668649,0.0001056,53.2175,341.6475,101.3511,257.4744,-0.0088605,-0.0071307,0.0,0 STARLINK-3650,1 51982U 22025AC  22100.58334491 -.00713070  00000-0 -88605-2 0  9997,2 51982  53.2175 341.6475 0001056 101.3511 257.4744 15.61668649  3697,6760.974,92.209,383.55300000000005,382.125,0.0
51982.0,STARLINK-3650,PAYLOAD,2022-04-10 20:00:01,15.61288593,0.0001106,53.2177,340.4351,85.4052,239.5468,-0.0090347,-0.00716138,0.0,0 STARLINK-3650,1 51982U 22025AC  22100.83334491 -.00716138  00000-0 -90347-2 0  9999,2 51982  53.2177 340.4351 0001106  85.4052 239.5468 15.61288593  6353,6762.071,92.232,384.684,383.18800000000016,0.0
